KUIPER-00146            
1 65967U 25228W   25300.88630488  .00016621  00000+0  49995-3 0  9991
2 65967  51.8805 241.4787 0005696 187.8348 172.2549 15.34489719  3374
KUIPER-00149            
1 65968U 25228X   25300.88462511  .00032688  00000+0  96432-3 0  9991
2 65968  51.8800 241.4624 0005706 185.6043 174.4880 15.34686848  3374
KUIPER-00154            
1 65969U 25228Y   25300.88399852  .00029286  00000+0  86371-3 0  9990
2 65969  51.8798 241.4586 0005899 182.9309 177.1643 15.34751015  3372
KUIPER-00157            
1 65970U 25228Z   25300.88850917  .00017822  00000+0  53856-3 0  9991
2 65970  51.8807 241.4928 0005766 200.0102 160.0659 15.34290135  3370
STRIX-5                 
1 65971U 25229A   25297.29131744  .00006967  00000+0  53274-3 0  9995
2 65971  41.9263 152.9596 0040828 308.1192  51.5956 15.01617112  1476
ELECTRON R/B            
1 65972U 25229B   25300.88306742  .00005633  00000+0  43340-3 0  9990
2 65972  41.9267 133.1287 0040235 331.0420  28.8173 15.01655838  1992
ELECTRON KICK STAGE R/B 
1 65973U 25229C   25300.87577846  .00007542  00000+0  56194-3 0  9997
2 65973  41.9822 133.1518 0041270 331.1365  28.7179 15.02509862  1986
HULIANWANG DIGUI 12A    
1 65995U 25231A   25300.63054324  .00000058  00000+0  13232-3 0  9990
2 65995  50.0009 310.6285 0006418 293.6377  66.3853 14.03845194  1631
HULIANWANG DIGUI 12B    
1 65996U 25231B   25300.70466237  .00000093  00000+0  15373-3 0  9996
2 65996  49.9998 310.3531 0008992 299.3759  60.6247 14.03876331  1645
HULIANWANG DIGUI 12C    
1 65997U 25231C   25300.70074775  .00000115  00000+0  16773-3 0  9999
2 65997  49.9975 310.3283 0007536 298.7638  61.2509 14.03879853  1647
HULIANWANG DIGUI 12D    
1 65998U 25231D   25300.55712650  .00000149  00000+0  18705-3 0  9998
2 65998  50.0000 310.9063 0006639 304.2879  55.7397 14.04581753  1626
HULIANWANG DIGUI 12E    
1 65999U 25231E   25300.98351994  .00000213  00000+0  22976-3 0  9993
2 65999  50.1292 309.2537 0055588 305.8716  53.7036 14.03085816  1684
